NORAD_CAT_ID,OBJECT_NAME,OBJECT_TYPE,EPOCH,MEAN_MOTION,ECCENTRICITY,INCLINATION,RA_OF_ASC_NODE,ARG_OF_PERICENTER,MEAN_ANOMALY,BSTAR,MEAN_MOTION_DOT,MEAN_MOTION_DDOT,TLE_LINE0,TLE_LINE1,TLE_LINE2,SEMIMAJOR_AXIS,PERIOD,APOGEE,PERIGEE,DECAYED
49416.0,STARLINK-3133,PAYLOAD,2021-12-08 06:00:02,15.7321,0.0002447,53.2182,10.7294,28.0114,283.123,-0.00025987,-0.00036954,0.0,0 STARLINK-3133,1 49416U 21104J   21342.25002315 -.00036954  00000-0 -25987-3 0  9995,2 49416  53.2182  10.7294 0002447  28.0114 283.1230 15.73210000  5185,6727.8669999999975,91.533,351.37800000000016,348.085,0.0
49416.0,STARLINK-3133,PAYLOAD,2021-12-08 14:00:01,15.73180105,0.0002648999999999,53.2178,9.081,26.0879,13.9052,0.0003226,0.00044862,0.0,0 STARLINK-3133,1 49416U 21104J   21342.58334491  .00044862  00000-0  32260-3 0  9991,2 49416  53.2178   9.0810 0002649  26.0879  13.9052 15.73180105  3715,6727.9519999999975,91.534,351.599,348.035,0.0
49416.0,STARLINK-3133,PAYLOAD,2021-12-08 22:00:00,15.73179189,0.0002391,53.2181,7.4295,28.9263,99.9964,0.00042412,0.00059274,0.0,0 STARLINK-3133,1 49416U 21104J   21342.91667824  .00059274  00000-0  42412-3 0  9990,2 49416  53.2181   7.4295 0002391  28.9263  99.9964 15.73179189  5280,6727.955,91.534,351.42800000000005,348.211,0.0
49416.0,STARLINK-3133,PAYLOAD,2021-12-09 12:00:00,15.7314728,0.000266,53.2187,4.5451,23.4217,171.1535,0.00030915,0.00042895,0.0,0 STARLINK-3133,1 49416U 21104J   21343.50001157  .00042895  00000-0  30915-3 0  9993,2 49416  53.2187   4.5451 0002660  23.4217 171.1535 15.73147280  5381,6728.045,91.536,351.7,348.121,0.0
49416.0,STARLINK-3133,PAYLOAD,2021-12-09 22:00:00,15.73156865,0.0002435,53.2183,2.4811,26.6927,9.0102,0.00045236,0.00063232,0.0,0 STARLINK-3133,1 49416U 21104J   21343.91667824  .00063232  00000-0  45236-3 0  9997,2 49416  53.2183   2.4811 0002435  26.6927   9.0102 15.73156865  3686,6728.018,91.536,351.521,348.245,0.0
49416.0,STARLINK-3133,PAYLOAD,2021-12-10 14:00:01,15.73201256,0.0002716,53.2178,359.1844,25.6276,187.8978,0.00013174,0.0001791,0.0,0 STARLINK-3133,1 49416U 21104J   21344.58334491  .00017910  00000-0  13174-3 0  9990,2 49416  53.2178 359.1844 0002716  25.6276 187.8978 15.73201256  5555,6727.892,91.533,351.584,347.92900000000014,0.0
49416.0,STARLINK-3133,PAYLOAD,2021-12-10 22:00:00,15.73188001,0.0002517,53.2181,357.5329,29.0415,273.4319,0.00046562,0.00065207,0.0,0 STARLINK-3133,1 49416U 21104J   21344.91667824  .00065207  00000-0  46562-3 0  9995,2 49416  53.2181 357.5329 0002517  29.0415 273.4319 15.73188001  3686,6727.929,91.534,351.48800000000006,348.101,0.0
49416.0,STARLINK-3133,PAYLOAD,2021-12-11 14:00:01,15.73308787,0.0002788999999999,53.2176,354.2345,26.5726,93.7983,-0.0015052,-0.00207762,0.0,0 STARLINK-3133,1 49416U 21104J   21345.58334491 -.00207762  00000-0 -15052-2 0  9995,2 49416  53.2176 354.2345 0002789  26.5726  93.7983 15.73308787  3708,6727.585,91.527,351.326,347.574,0.0
49416.0,STARLINK-3133,PAYLOAD,2021-12-11 22:00:00,15.73342436,0.0002448,53.2173,352.58,28.063,181.0317,-0.0038834,-0.00516764,0.0,0 STARLINK-3133,1 49416U 21104J   21345.91667824 -.00516764  00000-0 -38834-2 0  9999,2 49416  53.2173 352.5800 0002448  28.0630 181.0317 15.73342436  5764,6727.489000000001,91.525,351.001,347.707,0.0
49416.0,STARLINK-3133,PAYLOAD,2021-12-12 06:00:00,15.72984006,0.0002463,53.2174,350.9311,14.2877,283.6917,-0.0051652,-0.00664948,0.0,0 STARLINK-3133,1 49416U 21104J   21346.25001157 -.00664948  00000-0 -51652-2 0  9999,2 49416  53.2174 350.9311 0002463  14.2877 283.6917 15.72984006  5816,6728.511,91.546,352.033,348.719,0.0
49416.0,STARLINK-3133,PAYLOAD,2021-12-12 14:00:01,15.72514919,0.0002411,53.2171,349.2812,14.869000000000002,11.4929,-0.0052377,-0.00661123,0.0,0 STARLINK-3133,1 49416U 21104J   21346.58334491 -.00661123  00000-0 -52377-2 0  9992,2 49416  53.2171 349.2812 0002411  14.8690  11.4929 15.72514919  3700,6729.849,91.573,353.337,350.092,0.0
49416.0,STARLINK-3133,PAYLOAD,2021-12-12 22:00:01,15.71969243,0.0003011,53.217,347.6316,315.3652,158.931,-0.0045373,-0.00566041,0.0,0 STARLINK-3133,1 49416U 21104J   21346.91668981 -.00566041  00000-0 -45373-2 0  9994,2 49416  53.2170 347.6316 0003011 315.3652 158.9310 15.71969243  3674,6731.406,91.605,355.298,351.245,0.0
49416.0,STARLINK-3133,PAYLOAD,2021-12-13 14:00:01,15.71108558,0.0002018,53.2173,344.3378,325.5708,322.5737,-0.0054565,-0.00649522,0.0,0 STARLINK-3133,1 49416U 21104J   21347.58334491 -.00649522  00000-0 -54565-2 0  9993,2 49416  53.2173 344.3378 0002018 325.5708 322.5737 15.71108558  6028,6733.865,91.655,357.088,354.371,0.0
49416.0,STARLINK-3133,PAYLOAD,2021-12-13 22:00:00,15.70647408,0.0003306,53.2175,342.6907,313.803,60.4793,-0.005654,-0.00659583,0.0,0 STARLINK-3133,1 49416U 21104J   21347.91667824 -.00659583  00000-0 -56540-2 0  9992,2 49416  53.2175 342.6907 0003306 313.8030  60.4793 15.70647408  3701,6735.183000000001,91.682,359.274,354.821,0.0
49416.0,STARLINK-3133,PAYLOAD,2021-12-14 06:00:02,15.70190106,0.0005927,53.2174,341.0485,300.6196,159.3019,-0.0059155,-0.00676466,0.0,0 STARLINK-3133,1 49416U 21104J   21348.25002315 -.00676466  00000-0 -59155-2 0  9992,2 49416  53.2174 341.0485 0005927 300.6196 159.3019 15.70190106  6128,6736.49,91.709,362.348,354.36300000000006,0.0
49416.0,STARLINK-3133,PAYLOAD,2021-12-14 14:00:01,15.69719426,0.0002044,53.2171,339.4049,281.0552,263.8203,-0.0059764,-0.00669447,0.0,0 STARLINK-3133,1 49416U 21104J   21348.58334491 -.00669447  00000-0 -59764-2 0  9998,2 49416  53.2171 339.4049 0002044 281.0552 263.8203 15.69719426  3726,6737.837,91.736,361.079,358.325,0.0
49416.0,STARLINK-3133,PAYLOAD,2021-12-14 22:00:00,15.69240756,9.17e-05,53.2173,337.7612,336.2965,293.0411,-0.0058795,-0.00647106,0.0,0 STARLINK-3133,1 49416U 21104J   21348.91667824 -.00647106  00000-0 -58795-2 0  9995,2 49416  53.2173 337.7612 0000917 336.2965 293.0411 15.69240756  3713,6739.206999999999,91.764,361.69,360.454,0.0
49416.0,STARLINK-3133,PAYLOAD,2021-12-15 06:00:00,15.68781912,0.0001305,53.2172,336.1225,29.8446,323.3849,-0.0061244,-0.00660351,0.0,0 STARLINK-3133,1 49416U 21104J   21349.25001157 -.00660351  00000-0 -61244-2 0  9994,2 49416  53.2172 336.1225 0001305  29.8446 323.3849 15.68781912  6286,6740.521,91.791,363.266,361.506,0.0
49416.0,STARLINK-3133,PAYLOAD,2021-12-15 14:22:36,15.68294472,0.0001166,53.2173,334.4049,75.7579,89.4017,-0.0062681,-0.00662187,0.0,0 STARLINK-3133,1 49416U 21104J   21349.59902778 -.00662187  00000-0 -62681-2 0  9995,2 49416  53.2173 334.4049 0001166  75.7579  89.4017 15.68294472  3693,6741.917,91.819,364.569,362.996,0.0
49416.0,STARLINK-3133,PAYLOAD,2021-12-15 22:00:01,15.67849613,0.0001255,53.2174,332.842,63.8621,95.5439,-0.0063736,-0.00661207,0.0,0 STARLINK-3133,1 49416U 21104J   21349.91668981 -.00661207  00000-0 -63736-2 0  9990,2 49416  53.2174 332.8420 0001255  63.8621  95.5439 15.67849613  3681,6743.193,91.846,365.904,364.211,0.0
49416.0,STARLINK-3133,PAYLOAD,2021-12-16 06:00:00,15.67381902,0.0001443,53.2175,331.2067,53.0687,188.4856,-0.0064816999999999,-0.00659797,0.0,0 STARLINK-3133,1 49416U 21104J   21350.25001157 -.00659797  00000-0 -64817-2 0  9997,2 49416  53.2175 331.2067 0001443  53.0687 188.4856 15.67381902  6448,6744.534000000002,91.873,367.372,365.426,0.0
49416.0,STARLINK-3133,PAYLOAD,2021-12-16 14:00:01,15.66916361,0.0001103,53.2173,329.5697,72.4259,250.7821,-0.0066218999999999,-0.00661194,0.0,0 STARLINK-3133,1 49416U 21104J   21350.58334491 -.00661194  00000-0 -66219-2 0  9995,2 49416  53.2173 329.5697 0001103  72.4259 250.7821 15.66916361  3699,6745.87,91.9,368.479,366.991,0.0
49416.0,STARLINK-3133,PAYLOAD,2021-12-16 22:00:01,15.66447898,0.0001194,53.2173,327.9332,56.1424,348.225,-0.0067103,-0.00657674,0.0,0 STARLINK-3133,1 49416U 21104J   21350.91668981 -.00657674  00000-0 -67103-2 0  9997,2 49416  53.2173 327.9332 0001194  56.1424 348.2250 15.66447898  3682,6747.215,91.928,369.885,368.274,0.0
49416.0,STARLINK-3133,PAYLOAD,2021-12-17 05:28:09,15.66385074,0.0001252999999999,53.2184,326.421,87.2854,272.8307,-0.0033065,-0.00336271,0.0,0 STARLINK-3133,1 49416U 21104J   21351.22789201 -.00336271  00000-0 -33065-2 0  9998,2 49416  53.2184 326.4210 0001253  87.2854 272.8307 15.66385074  6596,6747.395,91.931,370.106,368.415,0.0
49416.0,STARLINK-3133,PAYLOAD,2021-12-17 14:00:01,15.65517354,0.0001219,53.2173,324.6674,73.6639,131.2062,-0.0070204,-0.00662287,0.0,0 STARLINK-3133,1 49416U 21104J   21351.58335648 -.00662287  00000-0 -70204-2 0  9994,2 49416  53.2173 324.6674 0001219  73.6639 131.2062 15.65517354  6650,6749.888000000001,91.982,372.576,370.93,0.0
49416.0,STARLINK-3133,PAYLOAD,2021-12-17 22:00:00,15.6504852,0.0001221,53.2175,323.0344,67.2292,216.9878,-0.0070944,-0.00657186,0.0,0 STARLINK-3133,1 49416U 21104J   21351.91667824 -.00657186  00000-0 -70944-2 0  9998,2 49416  53.2175 323.0344 0001221  67.2292 216.9878 15.65048520  3709,6751.236,92.01,373.926,372.277,0.0
49416.0,STARLINK-3133,PAYLOAD,2021-12-18 12:07:12,15.64677824,0.0002455,53.2171,320.1733,41.1837,318.9364,-0.00308,-0.0029411,0.0,0 STARLINK-3133,1 49416U 21104J   21352.50500952 -.00294110  00000-0 -30800-2 0  9993,2 49416  53.2171 320.1733 0002455  41.1837 318.9364 15.64677824  5700,6752.302,92.032,375.825,372.51,0.0
49416.0,STARLINK-3133,PAYLOAD,2021-12-18 22:00:00,15.63649391,0.0001324,53.2176,318.1461,63.4215,95.6645,-0.0075058,-0.00657554,0.0,0 STARLINK-3133,1 49416U 21104J   21352.91667824 -.00657554  00000-0 -75058-2 0  9999,2 49416  53.2176 318.1461 0001324  63.4215  95.6645 15.63649391  6867,6755.263000000001,92.092,378.022,376.233,0.0
49416.0,STARLINK-3133,PAYLOAD,2021-12-19 14:00:01,15.62717796,0.0001135,53.2173,314.8935,71.642,241.2199,-0.0078365999999999,-0.00661388,0.0,0 STARLINK-3133,1 49416U 21104J   21353.58334491 -.00661388  00000-0 -78366-2 0  9999,2 49416  53.2173 314.8935 0001135  71.6420 241.2199 15.62717796  3697,6757.946999999999,92.147,380.579,379.045,0.0
